[{"name":"METEOSAT-10 (MSG-3)","l1":"1 38552U 12035B   26183.29748566  .00000001  00000+0  00000+0 0  9990","l2":"2 38552   4.7052  60.9470 0001613  15.2569 311.3560  1.00269475 51007","cat":"geostationary"},{"name":"METEOSAT-11 (MSG-4)","l1":"1 40732U 15034A   26183.72673932  .00000071  00000+0  00000+0 0  9994","l2":"2 40732   3.2394  71.0131 0002236 349.0912 131.6062  1.00267949  7377","cat":"geostationary"},{"name":"LUDI TANCE-4 01A","l1":"1 57624U 23120A   26182.82627434 -.00000162  00000+0  00000+0 0  9995","l2":"2 57624  15.0947 193.6070 0001281  17.4858  95.7535  1.00266926 10695","cat":"geostationary"},{"name":"MAROC-TUBSAT","l1":"1 27004U 01056D   26183.77530162 -.00000035  00000+0  12887-4 0  9994","l2":"2 27004  99.8090   0.9291 0020612 102.6599 326.8055 13.70263068228326","cat":"other"},{"name":"METEOR-M 2","l1":"1 40069U 14037A   26183.77216598  .00000191  00000+0  10646-3 0  9999","l2":"2 40069  98.5120 158.9591 0005919   4.1216 356.0010 14.21466066621530","cat":"science"},{"name":"METEOR-M2 2","l1":"1 44387U 19038A   26183.76905166 -.00000211  00000+0 -71223-4 0  9991","l2":"2 44387  98.9148 171.2847 0001409  25.7364 334.3884 14.24369221363513","cat":"science"},{"name":"LUDI TANCE 1-01A (L-SA*)","l1":"1 51284U 22007A   26182.43322647  .00000658  00000+0  76794-4 0  9996","l2":"2 51284  97.8099 189.6506 0001594  89.8440 270.2959 14.88424373240599","cat":"other"},{"name":"LUDI TANCE 1-01B (L-SA*)","l1":"1 51822U 22018A   26183.74415980  .00000690  00000+0  80324-4 0  9994","l2":"2 51822  97.8111 190.9403 0001629  91.0875 269.0528 14.88418198236028","cat":"other"},{"name":"METEOR-M2 3","l1":"1 57166U 23091A   26183.76695706 -.00000003  00000+0  17380-4 0  9992","l2":"2 57166  98.6080 238.4260 0005013 118.1282 242.0404 14.24048058156739","cat":"science"},{"name":"METEOR-M2 4","l1":"1 59051U 24039A   26183.79935666  .00000018  00000+0  27558-4 0  9998","l2":"2 59051  98.7025 142.9016 0008036 119.7013 240.4966 14.22431103121483","cat":"science"}]